{
  "norad_id": 56020,
  "name": "STARLINK-5912",
  "history": [
    {
      "epoch": "2026-03-28T22:00:01.999584Z",
      "apogee_km": 487.2755871725012,
      "perigee_km": 485.53391563933565,
      "latitude_deg": 41.72054882664047,
      "longitude_deg": -111.704669524241,
      "height_km": 490.1022856168253,
      "semi_major_axis_km": 6864.541751405918,
      "eccentricity": 0.00012686,
      "inclination_deg": 42.9993,
      "raan_deg": 296.6013,
      "arg_perigee_deg": 292.3067,
      "mean_anomaly_deg": 171.0694,
      "mean_motion_rev_day": 15.26460026
    },
    {
      "epoch": "2026-03-29T04:00:01.999584Z",
      "apogee_km": 486.92360809173624,
      "perigee_km": 484.8479276067392,
      "latitude_deg": 25.35399061809875,
      "longitude_deg": 78.95658745385715,
      "height_km": 486.555466587121,
      "semi_major_axis_km": 6864.022767849237,
      "eccentricity": 0.0001512,
      "inclination_deg": 42.9994,
      "raan_deg": 295.1872,
      "arg_perigee_deg": 261.2294,
      "mean_anomaly_deg": 137.4987,
      "mean_motion_rev_day": 15.26633151
    },
    {
      "epoch": "2026-03-30T04:00:01.999584Z",
      "apogee_km": 486.7437749265873,
      "perigee_km": 484.3318795922887,
      "latitude_deg": 25.3555080050995,
      "longitude_deg": -168.37712049066516,
      "height_km": 486.17629188933563,
      "semi_major_axis_km": 6863.674827259438,
      "eccentricity": 0.0001757,
      "inclination_deg": 42.9995,
      "raan_deg": 289.5501,
      "arg_perigee_deg": 268.7475,
      "mean_anomaly_deg": 232.5262,
      "mean_motion_rev_day": 15.26749237
    },
    {
      "epoch": "2026-03-30T06:00:02.000160Z",
      "apogee_km": 486.68268598847317,
      "perigee_km": 484.37992527193455,
      "latitude_deg": -36.30027595643068,
      "longitude_deg": -117.0002805198993,
      "height_km": 495.0328923430098,
      "semi_major_axis_km": 6863.668305630204,
      "eccentricity": 0.00016775,
      "inclination_deg": 42.9997,
      "raan_deg": 289.0792,
      "arg_perigee_deg": 266.7348,
      "mean_anomaly_deg": 333.0971,
      "mean_motion_rev_day": 15.26751413
    },
    {
      "epoch": "2026-03-30T14:00:03.000384Z",
      "apogee_km": 486.72792211708384,
      "perigee_km": 484.4836155065377,
      "latitude_deg": -43.019023189851204,
      "longitude_deg": 164.85235400382211,
      "height_km": 497.79264678646285,
      "semi_major_axis_km": 6863.7427688118105,
      "eccentricity": 0.00016349,
      "inclination_deg": 42.9996,
      "raan_deg": 287.1998,
      "arg_perigee_deg": 264.0693,
      "mean_anomaly_deg": 10.065,
      "mean_motion_rev_day": 15.26726568
    },
    {
      "epoch": "2026-03-30T22:00:00.999936Z",
      "apogee_km": 486.7175511221103,
      "perigee_km": 484.54969780808005,
      "latitude_deg": -32.55548534608613,
      "longitude_deg": 84.1050751602567,
      "height_km": 493.7694059689189,
      "semi_major_axis_km": 6863.770624465095,
      "eccentricity": 0.00015792,
      "inclination_deg": 43.0,
      "raan_deg": 285.3215,
      "arg_perigee_deg": 272.9664,
      "mean_anomaly_deg": 35.2813,
      "mean_motion_rev_day": 15.26717274
    },
    {
      "epoch": "2026-03-31T20:00:01.999008Z",
      "apogee_km": 486.6067407872515,
      "perigee_km": 484.63272435096496,
      "latitude_deg": -30.372095111247607,
      "longitude_deg": 112.25592614347005,
      "height_km": 493.021391548833,
      "semi_major_axis_km": 6863.756732569108,
      "eccentricity": 0.0001438,
      "inclination_deg": 42.9999,
      "raan_deg": 280.1506,
      "arg_perigee_deg": 272.9426,
      "mean_anomaly_deg": 39.5282,
      "mean_motion_rev_day": 15.26721909
    },
    {
      "epoch": "2026-04-01T11:54:34.154496Z",
      "apogee_km": 486.5063959872805,
      "perigee_km": 484.62162368997815,
      "latitude_deg": 2.6438296258428163e-05,
      "longitude_deg": -92.09139966391832,
      "height_km": 485.2536659420433,
      "semi_major_axis_km": 6863.701009838629,
      "eccentricity": 0.0001373,
      "inclination_deg": 43.0005,
      "raan_deg": 276.4093,
      "arg_perigee_deg": 275.3072,
      "mean_anomaly_deg": 84.7623,
      "mean_motion_rev_day": 15.26740501
    },
    {
      "epoch": "2026-04-02T19:18:43.411968Z",
      "apogee_km": 486.4206818897792,
      "perigee_km": 484.6608349125245,
      "latitude_deg": 3.448198778406928e-05,
      "longitude_deg": 148.1986795103738,
      "height_km": 485.2832930311832,
      "semi_major_axis_km": 6863.677758401152,
      "eccentricity": 0.0001282,
      "inclination_deg": 43.0008,
      "raan_deg": 269.0276,
      "arg_perigee_deg": 272.2301,
      "mean_anomaly_deg": 87.8404,
      "mean_motion_rev_day": 15.26748259
    },
    {
      "epoch": "2026-04-02T19:18:43.412832Z",
      "apogee_km": 486.4203387058915,
      "perigee_km": 484.6611780964131,
      "latitude_deg": 3.057816049713463e-05,
      "longitude_deg": 148.1986717373799,
      "height_km": 485.2833063803802,
      "semi_major_axis_km": 6863.677758401152,
      "eccentricity": 0.00012815,
      "inclination_deg": 43.0008,
      "raan_deg": 269.0276,
      "arg_perigee_deg": 272.2301,
      "mean_anomaly_deg": 87.8404,
      "mean_motion_rev_day": 15.26748259
    },
    {
      "epoch": "2026-04-03T18:51:50.352480Z",
      "apogee_km": 486.3980256113009,
      "perigee_km": 484.6793612176698,
      "latitude_deg": 1.1747266706666138e-05,
      "longitude_deg": 148.41679323292982,
      "height_km": 485.31063824468157,
      "semi_major_axis_km": 6863.675693414485,
      "eccentricity": 0.0001252,
      "inclination_deg": 43.0006,
      "raan_deg": 263.4919,
      "arg_perigee_deg": 270.3188,
      "mean_anomaly_deg": 89.752,
      "mean_motion_rev_day": 15.26748948
    },
    {
      "epoch": "2026-04-04T19:59:11.125824Z",
      "apogee_km": 486.32121193185685,
      "perigee_km": 484.83864907486804,
      "latitude_deg": -4.2934440615533553e-05,
      "longitude_deg": 124.6445366828541,
      "height_km": 485.25690027674364,
      "semi_major_axis_km": 6863.716930503362,
      "eccentricity": 0.000108,
      "inclination_deg": 43.0001,
      "raan_deg": 257.588,
      "arg_perigee_deg": 277.719,
      "mean_anomaly_deg": 82.3538,
      "mean_motion_rev_day": 15.26735189
    },
    {
      "epoch": "2026-04-05T11:41:15.594720Z",
      "apogee_km": 486.27130563267474,
      "perigee_km": 484.7931458282219,
      "latitude_deg": 2.4318647886646886e-05,
      "longitude_deg": -115.20934009667857,
      "height_km": 485.18395291110147,
      "semi_major_axis_km": 6863.6692257304485,
      "eccentricity": 0.00010768,
      "inclination_deg": 43.0002,
      "raan_deg": 253.8975,
      "arg_perigee_deg": 279.7219,
      "mean_anomaly_deg": 80.3511,
      "mean_motion_rev_day": 15.26751106
    },
    {
      "epoch": "2026-04-05T17:58:05.939904Z",
      "apogee_km": 486.3692756470282,
      "perigee_km": 484.7823852406291,
      "latitude_deg": 2.448864586005289e-06,
      "longitude_deg": 148.84712732260522,
      "height_km": 485.20943024739177,
      "semi_major_axis_km": 6863.712830443828,
      "eccentricity": 0.0001156,
      "inclination_deg": 43.0005,
      "raan_deg": 252.4217,
      "arg_perigee_deg": 280.3858,
      "mean_anomaly_deg": 79.6863,
      "mean_motion_rev_day": 15.26736557
    },
    {
      "epoch": "2026-04-06T06:31:45.488928Z",
      "apogee_km": 486.41412524848965,
      "perigee_km": 484.72661415457424,
      "latitude_deg": 2.1127190537226367e-05,
      "longitude_deg": -43.03600284214728,
      "height_km": 485.23357147915783,
      "semi_major_axis_km": 6863.707369701531,
      "eccentricity": 0.00012293,
      "inclination_deg": 43.0011,
      "raan_deg": 249.4692,
      "arg_perigee_deg": 277.7353,
      "mean_anomaly_deg": 82.3359,
      "mean_motion_rev_day": 15.26738379
    },
    {
      "epoch": "2026-04-07T13:55:54.709248Z",
      "apogee_km": 486.38397033169076,
      "perigee_km": 484.70978056079275,
      "latitude_deg": 1.6800108312856278e-05,
      "longitude_deg": -162.7442863276961,
      "height_km": 485.27793165999105,
      "semi_major_axis_km": 6863.6838754462415,
      "eccentricity": 0.00012196,
      "inclination_deg": 43.0016,
      "raan_deg": 242.089,
      "arg_perigee_deg": 273.1335,
      "mean_anomaly_deg": 86.9377,
      "mean_motion_rev_day": 15.26746218
    },
    {
      "epoch": "2026-04-07T20:12:44.569728Z",
      "apogee_km": 486.4245035025888,
      "perigee_km": 484.6605378657732,
      "latitude_deg": 1.546684353952591e-05,
      "longitude_deg": 101.31442782339424,
      "height_km": 485.18429079710853,
      "semi_major_axis_km": 6863.679520684181,
      "eccentricity": 0.0001285,
      "inclination_deg": 43.0017,
      "raan_deg": 240.6134,
      "arg_perigee_deg": 278.8119,
      "mean_anomaly_deg": 81.2587,
      "mean_motion_rev_day": 15.26747671
    },
    {
      "epoch": "2026-04-08T15:03:14.944320Z",
      "apogee_km": 486.3963552132409,
      "perigee_km": 484.7299860858102,
      "latitude_deg": 3.6918808010250284e-06,
      "longitude_deg": 173.48624803957165,
      "height_km": 485.25328492462296,
      "semi_major_axis_km": 6863.700170649525,
      "eccentricity": 0.00012139,
      "inclination_deg": 43.0017,
      "raan_deg": 236.1856,
      "arg_perigee_deg": 275.9736,
      "mean_anomaly_deg": 84.0977,
      "mean_motion_rev_day": 15.26740781
    },
    {
      "epoch": "2026-04-09T16:10:33.997440Z",
      "apogee_km": 486.33341013420886,
      "perigee_km": 484.75956751022113,
      "latitude_deg": 4.282190085765839e-05,
      "longitude_deg": 149.72077645206457,
      "height_km": 485.3869354255294,
      "semi_major_axis_km": 6863.683488822215,
      "eccentricity": 0.00011465,
      "inclination_deg": 43.0016,
      "raan_deg": 230.2812,
      "arg_perigee_deg": 265.3558,
      "mean_anomaly_deg": 94.7163,
      "mean_motion_rev_day": 15.26746347
    },
    {
      "epoch": "2026-04-11T15:16:49.011168Z",
      "apogee_km": 486.3322983911976,
      "perigee_km": 484.8154182915041,
      "latitude_deg": 2.176552167348317e-05,
      "longitude_deg": 150.15279293114276,
      "height_km": 485.3453837430898,
      "semi_major_axis_km": 6863.710858341351,
      "eccentricity": 0.0001105,
      "inclination_deg": 43.0014,
      "raan_deg": 219.2103,
      "arg_perigee_deg": 270.3901,
      "mean_anomaly_deg": 89.6824,
      "mean_motion_rev_day": 15.26737215
    }
  ]
}